[{"OBJECT_NAME":"STARLINK-34059","OBJECT_ID":"2025-094J","EPOCH":"2026-03-09T20:25:23.722464","MEAN_MOTION":14.98344933,"ECCENTRICITY":0.00034434,"INCLINATION":70.0018,"RA_OF_ASC_NODE":234.1973,"ARG_OF_PERICENTER":272.8074,"MEAN_ANOMALY":87.2691,"EPHEMERIS_TYPE":0,"CLASSIFICATION_TYPE":"U","NORAD_CAT_ID":63872,"ELEMENT_SET_NO":999,"REV_AT_EPOCH":4722,"BSTAR":0.0004846981,"MEAN_MOTION_DOT":5.697e-5,"MEAN_MOTION_DDOT":0},{"OBJECT_NAME":"SL-16 DEB","OBJECT_ID":"1992-093JY","EPOCH":"2026-03-07T13:13:58.279008","MEAN_MOTION":15.07529046,"ECCENTRICITY":0.0041412,"INCLINATION":71.2754,"RA_OF_ASC_NODE":129.6393,"ARG_OF_PERICENTER":153.6297,"MEAN_ANOMALY":274.6618,"EPHEMERIS_TYPE":0,"CLASSIFICATION_TYPE":"U","NORAD_CAT_ID":39708,"ELEMENT_SET_NO":999,"REV_AT_EPOCH":64104,"BSTAR":0.0012088,"MEAN_MOTION_DOT":0.00018716,"MEAN_MOTION_DDOT":0}]
